[{"OBJECT_NAME":"STARLINK-3984","OBJECT_ID":"2022-052Z","EPOCH":"2026-03-09T20:47:44.631456","MEAN_MOTION":15.0883948,"ECCENTRICITY":0.00013616,"INCLINATION":53.2165,"RA_OF_ASC_NODE":268.3272,"ARG_OF_PERICENTER":95.5102,"MEAN_ANOMALY":264.6045,"EPHEMERIS_TYPE":0,"CLASSIFICATION_TYPE":"U","NORAD_CAT_ID":52621,"ELEMENT_SET_NO":999,"REV_AT_EPOCH":21101,"BSTAR":3.2941038e-5,"MEAN_MOTION_DOT":2.36e-6,"MEAN_MOTION_DDOT":0},{"OBJECT_NAME":"CZ-4C R\/B","OBJECT_ID":"2018-031F","EPOCH":"2026-03-09T18:17:36.260736","MEAN_MOTION":15.22605712,"ECCENTRICITY":0.00804945,"INCLINATION":98.1311,"RA_OF_ASC_NODE":341.6719,"ARG_OF_PERICENTER":21.712,"MEAN_ANOMALY":338.7495,"EPHEMERIS_TYPE":0,"CLASSIFICATION_TYPE":"U","NORAD_CAT_ID":43264,"ELEMENT_SET_NO":999,"REV_AT_EPOCH":43612,"BSTAR":0.00044368098,"MEAN_MOTION_DOT":0.00011203,"MEAN_MOTION_DDOT":0}]
